[{"OBJECT_NAME":"ONEWEB-0140","OBJECT_ID":"2020-100AE","EPOCH":"2026-03-09T20:40:17.405184","MEAN_MOTION":13.12442672,"ECCENTRICITY":0.00017198,"INCLINATION":87.9006,"RA_OF_ASC_NODE":10.3531,"ARG_OF_PERICENTER":84.2213,"MEAN_ANOMALY":275.9112,"EPHEMERIS_TYPE":0,"CLASSIFICATION_TYPE":"U","NORAD_CAT_ID":47286,"ELEMENT_SET_NO":999,"REV_AT_EPOCH":25166,"BSTAR":-0.0010584755,"MEAN_MOTION_DOT":-3.68e-6,"MEAN_MOTION_DDOT":0},{"OBJECT_NAME":"SL-14 DEB","OBJECT_ID":"1991-056AX","EPOCH":"2026-03-09T21:40:32.738880","MEAN_MOTION":13.23511159,"ECCENTRICITY":0.01493116,"INCLINATION":82.6112,"RA_OF_ASC_NODE":234.1862,"ARG_OF_PERICENTER":225.8194,"MEAN_ANOMALY":133.0585,"EPHEMERIS_TYPE":0,"CLASSIFICATION_TYPE":"U","NORAD_CAT_ID":45309,"ELEMENT_SET_NO":999,"REV_AT_EPOCH":29052,"BSTAR":0.013411199,"MEAN_MOTION_DOT":6.042e-5,"MEAN_MOTION_DDOT":0}]
